[
    {
        "Altitude(m)": 624792.7768534878,
        "Argument of Periapsis(deg)": 0.0,
        "Eccentricity": 0.0,
        "Inclination(deg)": 60.0,
        "Latitude(deg)": -59.147102067409,
        "Longitude(deg)": -0.9734273979121615,
        "Mean Anomaly(deg)": -98.18180000000002,
        "RAAN(deg)": 205.0,
        "Satellite Name": "Test1 918",
        "Satellite Number": 918,
        "Semi-Major Axis(m)": 6980739.136638005,
        "Time(s)": 0
    },
    {
        "Altitude(m)": 624842.1682136921,
        "Argument of Periapsis(deg)": 0.00010418945913296404,
        "Eccentricity": 0.0,
        "Inclination(deg)": 60.0,
        "Latitude(deg)": -59.289183647577815,
        "Longitude(deg)": 0.15607807622570752,
        "Mean Anomaly(deg)": -97.56169385453816,
        "RAAN(deg)": 204.99957995086024,
        "Satellite Name": "Test1 918",
        "Satellite Number": 918,
        "Semi-Major Axis(m)": 6980739.136638005,
        "Time(s)": 10
    }
]